[{"OBJECT_NAME":"STARLINK-31436","OBJECT_ID":"2024-036X","EPOCH":"2026-03-09T08:04:20.560512","MEAN_MOTION":15.30185538,"ECCENTRICITY":0.00012387,"INCLINATION":53.1604,"RA_OF_ASC_NODE":80.1548,"ARG_OF_PERICENTER":101.6969,"MEAN_ANOMALY":258.4171,"EPHEMERIS_TYPE":0,"CLASSIFICATION_TYPE":"U","NORAD_CAT_ID":59019,"ELEMENT_SET_NO":999,"REV_AT_EPOCH":11526,"BSTAR":-6.632871e-6,"MEAN_MOTION_DOT":-5.55e-6,"MEAN_MOTION_DDOT":0},{"OBJECT_NAME":"GLOBAL-34","OBJECT_ID":"2026-043A","EPOCH":"2026-03-09T11:23:30.999840","MEAN_MOTION":15.31488019,"ECCENTRICITY":0.00068849,"INCLINATION":42.0215,"RA_OF_ASC_NODE":76.7399,"ARG_OF_PERICENTER":289.2632,"MEAN_ANOMALY":70.746,"EPHEMERIS_TYPE":0,"CLASSIFICATION_TYPE":"U","NORAD_CAT_ID":68098,"ELEMENT_SET_NO":999,"REV_AT_EPOCH":53,"BSTAR":0.00045822046,"MEAN_MOTION_DOT":0.00014018,"MEAN_MOTION_DDOT":0}]
